#dP2023  9 10 12  0  0.00000000      96 __u+U ITR00 EXT  IAC
## 2279  43200.00000000   900.00000000 60197 0.5000000000000
+  118   C06C07C08C09C10C11C12C13C14C16C19C20C21C22C23C24C25
+        C26C27C28C29C30C32C33C34C35C36C37C38C39C40C41C42C43
+        C44C45C46E02E03E04E05E07E08E09E10E11E12E13E14E15E18
+        E19E21E24E25E26E27E30E31E33E34E36G01G02G03G04G05G06
+        G07G08G09G10G11G12G13G14G15G16G17G18G19G20G21G22G23
+        G24G25G26G27G28G29G30G31G32J02J03J04R01R02R03R04R05
+        R07R08R09R11R12R13R14R15R16R17R18R19R20R21R22R24  0
++        10  8  9  9 10  9 10 10 10 10  8  5  9  9  9  8  8
++         9 10  9  7  9  9  8  8  8  8  9 11 12  8 11  9 10
++         9  6  8  7  7  6  8  7  7  8  7  6  7  7  6  6  7
++         6  6  6  8  5  7  7  7  6  7  8  7  8  7  8  6  8
++         7  8  5  7  6  7  6  6  6  6  7  6  9  8  9  7  7
++         6  6  5  6  7  6  5  7  6  9  9  9  8  8  8  8  8
++         9  7  7  8  8  9  8  7  8  9  9 12 12  9  9 10  0
%c M  cc GPS ccc cccc cccc cccc cccc ccccc ccccc ccccc ccccc
%c cc cc ccc ccc cccc cccc cccc cccc ccccc ccccc ccccc ccccc
%f  0.0000000  0.000000000  0.00000000000  0.000000000000000
%f  0.0000000  0.000000000  0.00000000000  0.000000000000000
%i    0    0    0    0      0      0      0      0         0
%i    0    0    0    0      0      0      0      0         0
/* IAC                                ULTRA-RAPID PREDICTION
/* S/V CLOCKS ARE ALIGNED TO GNSS TIME                      
/* G:C1WC2W R:C1PC2P E:C1XC5X C:C2IC6I J:C1CC2S             
/* PCV:IGS20_2274 OL/AL:FES2004  NONE     YN ORB:CoN CLK:CoN
*  2023 09 10 21 15  0.00000000
PC06  -1468.581383  28963.918503 -30498.989937     31.027314
PC07 -17343.706180  30121.753061  23815.379356    -67.506350
PC08 -10665.218363  40690.344504   4229.718052    351.260242
PC09   5510.335636  32322.651226 -25760.079536    182.211204
PC10  -8912.558560  30320.586421  28016.689342   -174.155333
PC11 -25308.652130  -9498.523291   6934.984835    825.448527
PC12 -17532.620919 -18544.256611 -11228.757000    944.963208
PC13  -6111.493112  41826.860566  -1864.380001    349.635093
PC14 -22861.926665   1382.176984  15909.907761    383.232548
PC16  -5270.383854  26063.534323 -32396.935747    -74.374928
PC19  25131.898454  -9173.742751  -7960.265938   -970.456160
PC20  18232.836197   5107.578658 -20507.970639    293.585859
PC21    407.945662 -17563.590954  21691.986113   -967.031145
PC22  18001.029548 -18929.955710   9839.831688   -313.052372
PC23  -9839.181042  21725.396500 -14483.575181   -875.897084
PC24 -13078.026238 -17446.288222 -17408.319462    378.702927
PC25 -15965.029054   4385.236531 -22472.061207    208.498731
PC26  -3579.737092 -27497.923039  -2969.730060   -175.863101
PC27   9858.443334  19371.250188  17481.497064    197.348580
PC28  -8230.638238  13681.597172  22892.171996    147.998556
PC29  23835.974828    617.388153 -14508.005491    172.810262
PC30  23764.329769  14302.999163   2998.237137     -4.732194
PC32   -362.981992  17605.746557 -21640.425769   -528.962801
PC33 -25060.654805   9218.184856   8076.156600   -962.235502
PC34 -24330.906276 -13583.518947  -1641.777135    256.667470
PC35   7870.382672 -13992.003475 -22836.333546    549.215533
PC36  16164.337699  -3028.375146  22571.722912   -232.395434
PC37   2387.658124  27735.892825   2150.590488   -824.723058
PC38 -14484.317821  37797.859429  12138.309562    103.948140
PC39  -9801.808231  22637.174155 -34127.916743     -4.727716
PC40 -24507.273222  24074.110544  24282.037756    -36.043774
PC41 -18451.347641  18812.054321  -9132.078159   -879.568511
PC42 -17107.256929  -6350.517177  21139.941618   -551.075115
PC43 -24236.448157  -1310.418764  13774.007656     39.176095
PC44 -10344.342436 -19097.356616 -17547.712362    227.486740
PC45   9517.884797 -22079.116506  14150.064906    -24.110939
PC46  13441.596632  16329.483497  18227.500195    -83.292632
PE02   6264.427679  18834.534092  21966.509125     61.726934
PE03  17364.878487  13922.528437 -19528.200451    -54.651232
PE04 -29201.837414  -3038.959095   3762.932378   -209.220807
PE05  -4635.343126  16736.138428 -23972.676902     17.182556
PE07  24215.053156  -9549.933083  14102.723710    -73.887644
PE08  29119.298701   3287.821849  -4226.784506   -144.221703
PE09 -24285.262342   9419.204400 -14050.292739   -151.867406
PE10 -17728.339403   -468.889711  23687.068505   -562.781916
PE11 -12302.994074  10701.674592  24691.253310   2904.410134
PE12 -20022.787291 -10514.094998  19095.134658   -692.593045
PE13  12685.372296  -9956.602897 -24820.537142    -19.610014
PE14   -728.599578 -19335.804906 -22836.980504    336.691839
PE15  20025.064606  10927.456228 -18861.241706    -52.214010
PE18  18582.097763  14436.675791  14758.877472    516.068008
PE19 -14799.080693 -14770.912522  20954.021586  -1658.629435
PE21   8973.415340 -26777.564773  -8861.578074   -551.869320
PE24 -20061.325356  19067.359119 -10529.195648   -314.521001
PE25  -9231.705003  26796.459340   8554.127281     -1.622624
PE26  -2415.874137 -25060.113616 -15555.650773    218.721893
PE27  19815.540042 -19567.015496  10031.576077   -146.758923
PE30  18746.678310   -382.064422  22898.765933   -489.710426
PE31 -18860.402834    935.497854 -22781.188100     -4.782418
PE33 -15214.502367 -25345.531235   1335.757801     -0.650727
PE34  15599.815993  25091.084061  -1970.868640    -66.351931
PE36   1971.104940  24716.408736  16169.481454   -114.232763
PG01 -17385.006287  -7366.802630  18478.555071    165.814960
PG02 -19410.171023 -12344.443004  13929.242257   -555.460508
PG03 -17848.029151   4691.374495  18911.342968   -142.135123
PG04 -26554.389378   -436.219741  -1906.148477    152.180207
PG05  11093.577110  10860.019482 -21724.518915   -142.221488
PG06   3673.991401  23561.381736  11663.450881    552.495509
PG07 -11476.002417  10421.217899 -21048.447882     70.864331
PG08 -24481.533278  -6307.420800  -8857.070779   -141.598536
PG09 -23488.816049   7069.633410 -10325.380960    -63.224381
PG10  10012.462728 -23733.139511   5910.093775    -52.872198
PG11  12327.029520  23506.032446  -1541.270382   -362.509799
PG12  17035.611389    209.801159  20086.041316   -423.267905
PG13  18004.715392  13289.128427 -14664.438697    570.969866
PG14 -12985.598787  22927.657555   2528.868561    181.029084
PG15  25203.743437   3503.200598  -8515.029286     76.271165
PG16  -6353.391107 -15568.764528 -20759.091456   -456.030199
PG17  -9678.881427  13558.103578  21145.889277    723.653431
PG18   9655.723916 -12704.109492 -21196.072367   -412.976179
PG19   -119.087543  14968.633963  21752.145848    369.742561
PG20   4273.639166  20576.598830 -16313.236282    412.556637
PG21 -19523.154309 -14889.906245  11725.091114    149.159399
PG22  -8600.073995  23283.374903  10284.902654    124.333759
PG23  16599.918471 -19479.805233  -6749.108327     66.634942
PG24  19656.219523  10521.176874  14364.602137   -315.785492
PG25  18606.248685 -13865.525509  12361.799785    467.065779
PG26    476.859395 -22681.064535 -13646.395947    229.114156
PG27 -15187.112109 -12875.550714 -18030.872738    -37.315718
PG28  -2792.092361 -22941.032343  13070.743519     -8.065513
PG29  23860.356321  -4788.203466 -10812.657957   -609.138744
PG30  -4186.832319  19447.544637 -17351.823657   -488.929307
PG31  -9513.299961 -24267.571031   3545.876972   -223.187396
PG32   4298.459143 -15032.435563  21627.907244   -555.805216
PJ02 -27758.698872  31179.551819  -1403.697167     -3.816109
PJ03 -26207.623676  22243.429292  29501.655512     -2.505433
PJ04 -33245.304335  25136.522633  -1875.041997     70.580087
PR01   5309.857648   9677.656434 -23001.467061     65.374223
PR02  20436.147515   -122.324454 -15180.350432    -22.435144
PR03  23479.490637  -9796.186712   1360.141635     84.984786
PR04  13679.069783 -13515.076159  16773.077689    202.289945
PR05  -3578.499374 -10134.406782  23138.058835    118.808955
PR07 -23364.747866  10085.774218  -2087.215784     64.375734
PR08 -13478.685886  13670.238493 -16763.605415    -72.492236
PR09 -10210.099669  -7197.346076 -22229.018887    141.561500
PR11  -6661.388127  23589.580249  -7012.423734   -159.077571
PR12   2520.191854  22381.988988  12016.273999     31.140932
PR13   9296.902068   9409.686010  21801.807068    -39.060401
PR14  11300.533608 -11740.075035  19649.439813     25.252015
PR15   6370.375374 -24036.270166   5729.808678     86.317097
PR16  -2410.039823 -22539.004946 -11719.839929     18.563397
PR17  15080.976430    190.306435 -20578.593702     16.240334
PR18   1506.578737 -11905.035357 -22499.916404    101.283673
PR19 -11093.870122 -18127.687648 -14095.354576   -246.768023
PR20 -20264.075461 -14167.109339   6341.988095    -99.797907
PR21 -14330.118942    500.717938  21086.219626    -37.061207
PR22  -1318.158930  12732.364254  22089.109879     83.523758
PR24  20877.792773  12983.594829  -6832.020841    -23.866261
EOF
